start=new Date('2023-01-09T00:00:00.000Z').valueOf();
sats=[{"TIME_SYSTEM":"UTC","PERIAPSIS":"538.525","REF_FRAME":"TEME","COUNTRY_CODE":"US","MEAN_MOTION":"15.08851525","NORAD_CAT_ID":"53244","APOAPSIS":"540.895","ARG_OF_PERICENTER":"64.7945","MEAN_MOTION_DOT":"0.00003536","OBJECT_TYPE":"PAYLOAD","SITE":"AFETR","TLE_LINE1":"1 53244U 22086C   23008.34105454  .00003536  00000-0  24009-3 0  9990","ELEMENT_SET_NO":"999","OBJECT_ID":"2022-086C","EPHEMERIS_TYPE":"0","MEAN_ANOMALY":"295.3224","EPOCH":"2023-01-08T08:11:07.112256","REV_AT_EPOCH":"2667","INCLINATION":"53.2167","RCS_SIZE":"LARGE","RA_OF_ASC_NODE":"355.1674","MEAN_MOTION_DDOT":"0.0000000000000","CENTER_NAME":"EARTH","DECAY_DATE":null,"SEMIMAJOR_AXIS":"6917.845","CLASSIFICATION_TYPE":"U","MEAN_ELEMENT_THEORY":"SGP4","ECCENTRICITY":"0.00017130","PERIOD":"95.437","LAUNCH_DATE":"2022-07-24","TLE_LINE2":"2 53244  53.2167 355.1674 0001713  64.7945 295.3224 15.08851525 26670","GP_ID":"222469447","FILE":"3736235","OBJECT_NAME":"STARLINK-4125","BSTAR":"0.00024009000000"},{"GP_ID":"222501639","OBJECT_NAME":"STARLINK-4124","FILE":"3736460","BSTAR":"0.00009015600000","ECCENTRICITY":"0.00024010","PERIOD":"95.437","LAUNCH_DATE":"2022-07-24","TLE_LINE2":"2 53245  53.2183 352.4573 0002401  36.4040 323.7116 15.08842047 26781","DECAY_DATE":null,"SEMIMAJOR_AXIS":"6917.874","CLASSIFICATION_TYPE":"U","MEAN_ELEMENT_THEORY":"SGP4","RCS_SIZE":"LARGE","RA_OF_ASC_NODE":"352.4573","MEAN_MOTION_DDOT":"0.0000000000000","CENTER_NAME":"EARTH","REV_AT_EPOCH":"2678","INCLINATION":"53.2183","EPOCH":"2023-01-08T22:40:10.182720","EPHEMERIS_TYPE":"0","MEAN_ANOMALY":"323.7116","TLE_LINE1":"1 53245U 22086D   23008.94456230  .00001147  00000-0  90156-4 0  9991","ELEMENT_SET_NO":"999","OBJECT_ID":"2022-086D","SITE":"AFETR","NORAD_CAT_ID":"53245","APOAPSIS":"541.400","ARG_OF_PERICENTER":"36.4040","OBJECT_TYPE":"PAYLOAD","MEAN_MOTION_DOT":"0.00001147","MEAN_MOTION":"15.08842047","COUNTRY_CODE":"US","REF_FRAME":"TEME","TIME_SYSTEM":"UTC","PERIAPSIS":"538.078"},{"MEAN_MOTION_DDOT":"0.0000000000000","CENTER_NAME":"EARTH","RA_OF_ASC_NODE":"356.6392","RCS_SIZE":"LARGE","DECAY_DATE":null,"SEMIMAJOR_AXIS":"6917.927","MEAN_ELEMENT_THEORY":"SGP4","CLASSIFICATION_TYPE":"U","LAUNCH_DATE":"2022-07-24","TLE_LINE2":"2 53246  53.2167 356.6392 0002564  26.6548 333.4575 15.08824746 25516","PERIOD":"95.439","ECCENTRICITY":"0.00025640","BSTAR":"0.00005779600000","FILE":"3736235","GP_ID":"222468529","OBJECT_NAME":"STARLINK-4131","TLE_LINE1":"1 53246U 22086E   23008.01352747  .00000631  00000-0  57796-4 0  9998","ELEMENT_SET_NO":"999","OBJECT_ID":"2022-086E","EPHEMERIS_TYPE":"0","MEAN_ANOMALY":"333.4575","EPOCH":"2023-01-08T00:19:28.773408","INCLINATION":"53.2167","REV_AT_EPOCH":"2551","MEAN_MOTION":"15.08824746","APOAPSIS":"541.566","NORAD_CAT_ID":"53246","OBJECT_TYPE":"PAYLOAD","MEAN_MOTION_DOT":"0.00000631","ARG_OF_PERICENTER":"26.6548","SITE":"AFETR","PERIAPSIS":"538.018","TIME_SYSTEM":"UTC","REF_FRAME":"TEME","COUNTRY_CODE":"US"},{"MEAN_MOTION":"15.08836804","APOAPSIS":"541.510","NORAD_CAT_ID":"53247","OBJECT_TYPE":"PAYLOAD","MEAN_MOTION_DOT":"0.00001657","ARG_OF_PERICENTER":"31.0254","SITE":"AFETR","PERIAPSIS":"538.000","TIME_SYSTEM":"UTC","REF_FRAME":"TEME","COUNTRY_CODE":"US","MEAN_MOTION_DDOT":"0.0000000000000","CENTER_NAME":"EARTH","RCS_SIZE":"LARGE","RA_OF_ASC_NODE":"350.1546","SEMIMAJOR_AXIS":"6917.890","DECAY_DATE":null,"CLASSIFICATION_TYPE":"U","MEAN_ELEMENT_THEORY":"SGP4","TLE_LINE2":"2 53247  53.2160 350.1546 0002537  31.0254 329.0887 15.08836804 26745","LAUNCH_DATE":"2022-07-24","ECCENTRICITY":"0.00025370","PERIOD":"95.438","BSTAR":"0.00012221000000","GP_ID":"222468758","FILE":"3736235","OBJECT_NAME":"STARLINK-4061","TLE_LINE1":"1 53247U 22086F   23008.34797648  .00001657  00000-0  12221-3 0  9990","ELEMENT_SET_NO":"999","OBJECT_ID":"2022-086F","EPHEMERIS_TYPE":"0","MEAN_ANOMALY":"329.0887","EPOCH":"2023-01-08T08:21:05.167872","INCLINATION":"53.2160","REV_AT_EPOCH":"2674"},{"MEAN_MOTION":"15.08859971","APOAPSIS":"541.114","NORAD_CAT_ID":"53248","OBJECT_TYPE":"PAYLOAD","MEAN_MOTION_DOT":"0.00016425","ARG_OF_PERICENTER":"61.2961","SITE":"AFETR","PERIAPSIS":"538.255","TIME_SYSTEM":"UTC","REF_FRAME":"TEME","COUNTRY_CODE":"US","MEAN_MOTION_DDOT":"0.0000000000000","CENTER_NAME":"EARTH","RA_OF_ASC_NODE":"347.4868","RCS_SIZE":"LARGE","SEMIMAJOR_AXIS":"6917.819","DECAY_DATE":null,"MEAN_ELEMENT_THEORY":"SGP4","CLASSIFICATION_TYPE":"U","LAUNCH_DATE":"2022-07-24","TLE_LINE2":"2 53248  53.2160 347.4868 0002066  61.2961 298.8238 15.08859971 26832","PERIOD":"95.436","ECCENTRICITY":"0.00020660","BSTAR":"0.00104710000000","FILE":"3736460","GP_ID":"222500951","OBJECT_NAME":"STARLINK-4135","TLE_LINE1":"1 53248U 22086G   23008.94046469  .00016425  00000-0  10471-2 0  9998","ELEMENT_SET_NO":"999","OBJECT_ID":"2022-086G","EPHEMERIS_TYPE":"0","MEAN_ANOMALY":"298.8238","EPOCH":"2023-01-08T22:34:16.149216","INCLINATION":"53.2160","REV_AT_EPOCH":"2683"},{"MEAN_MOTION":"15.08843067","SITE":"AFETR","OBJECT_TYPE":"PAYLOAD","MEAN_MOTION_DOT":"0.00006228","ARG_OF_PERICENTER":"36.3695","APOAPSIS":"541.413","NORAD_CAT_ID":"53249","REF_FRAME":"TEME","PERIAPSIS":"538.059","TIME_SYSTEM":"UTC","COUNTRY_CODE":"US","CLASSIFICATION_TYPE":"U","MEAN_ELEMENT_THEORY":"SGP4","SEMIMAJOR_AXIS":"6917.871","DECAY_DATE":null,"MEAN_MOTION_DDOT":"0.0000000000000","CENTER_NAME":"EARTH","RA_OF_ASC_NODE":"343.9310","RCS_SIZE":"LARGE","BSTAR":"0.00040904000000","OBJECT_NAME":"STARLINK-4128","GP_ID":"222501181","FILE":"3736460","TLE_LINE2":"2 53249  53.2174 343.9310 0002424  36.3695 323.7461 15.08843067 26550","LAUNCH_DATE":"2022-07-24","PERIOD":"95.437","ECCENTRICITY":"0.00024240","MEAN_ANOMALY":"323.7461","EPHEMERIS_TYPE":"0","ELEMENT_SET_NO":"999","OBJECT_ID":"2022-086H","TLE_LINE1":"1 53249U 22086H   23008.62164950  .00006228  00000-0  40904-3 0  9995","INCLINATION":"53.2174","REV_AT_EPOCH":"2655","EPOCH":"2023-01-08T14:55:10.516800"},{"EPOCH":"2023-01-08T21:22:00.757056","REV_AT_EPOCH":"2659","INCLINATION":"53.2145","ELEMENT_SET_NO":"999","OBJECT_ID":"2022-086J","TLE_LINE1":"1 53250U 22086J   23008.89028654  .00009615  00000-0  62116-3 0  9998","MEAN_ANOMALY":"301.0713","EPHEMERIS_TYPE":"0","ECCENTRICITY":"0.00016940","PERIOD":"95.437","TLE_LINE2":"2 53250  53.2145 342.7171 0001694  59.0446 301.0713 15.08852845 26593","LAUNCH_DATE":"2022-07-24","OBJECT_NAME":"STARLINK-4059","GP_ID":"222501411","FILE":"3736460","BSTAR":"0.00062116000000","RCS_SIZE":"LARGE","RA_OF_ASC_NODE":"342.7171","MEAN_MOTION_DDOT":"0.0000000000000","CENTER_NAME":"EARTH","CLASSIFICATION_TYPE":"U","MEAN_ELEMENT_THEORY":"SGP4","DECAY_DATE":null,"SEMIMAJOR_AXIS":"6917.841","COUNTRY_CODE":"US","TIME_SYSTEM":"UTC","PERIAPSIS":"538.534","REF_FRAME":"TEME","ARG_OF_PERICENTER":"59.0446","MEAN_MOTION_DOT":"0.00009615","OBJECT_TYPE":"PAYLOAD","NORAD_CAT_ID":"53250","APOAPSIS":"540.878","SITE":"AFETR","MEAN_MOTION":"15.08852845"},{"PERIOD":"95.437","ECCENTRICITY":"0.00018880","TLE_LINE2":"2 53251  53.2180 342.4659 0001888  42.3102 317.8036 15.08855239 26582","LAUNCH_DATE":"2022-07-24","GP_ID":"222500263","OBJECT_NAME":"STARLINK-4129","FILE":"3736460","BSTAR":"0.00100000000000","RA_OF_ASC_NODE":"342.4659","RCS_SIZE":"LARGE","CENTER_NAME":"EARTH","MEAN_MOTION_DDOT":"0.0000000000000","CLASSIFICATION_TYPE":"U","MEAN_ELEMENT_THEORY":"SGP4","DECAY_DATE":null,"SEMIMAJOR_AXIS":"6917.834","EPOCH":"2023-01-08T22:41:30.045696","REV_AT_EPOCH":"2658","INCLINATION":"53.2180","ELEMENT_SET_NO":"999","OBJECT_ID":"2022-086K","TLE_LINE1":"1 53251U 22086K   23008.94548664  .00015669  00000-0  10000-2 0  9993","MEAN_ANOMALY":"317.8036","EPHEMERIS_TYPE":"0","ARG_OF_PERICENTER":"42.3102","OBJECT_TYPE":"PAYLOAD","MEAN_MOTION_DOT":"0.00015669","NORAD_CAT_ID":"53251","APOAPSIS":"541.005","SITE":"AFETR","MEAN_MOTION":"15.08855239","COUNTRY_CODE":"US","TIME_SYSTEM":"UTC","PERIAPSIS":"538.393","REF_FRAME":"TEME"},{"MEAN_ELEMENT_THEORY":"SGP4","CLASSIFICATION_TYPE":"U","SEMIMAJOR_AXIS":"6917.856","DECAY_DATE":null,"RA_OF_ASC_NODE":"343.9208","RCS_SIZE":"LARGE","MEAN_MOTION_DDOT":"0.0000000000000","CENTER_NAME":"EARTH","FILE":"3736460","GP_ID":"222500493","OBJECT_NAME":"STARLINK-4132","BSTAR":"0.00064700000000","PERIOD":"95.437","ECCENTRICITY":"0.00031300","TLE_LINE2":"2 53252  53.2182 343.9208 0003130  24.4243 335.6897 15.08848100 26559","LAUNCH_DATE":"2022-07-24","MEAN_ANOMALY":"335.6897","EPHEMERIS_TYPE":"0","ELEMENT_SET_NO":"999","OBJECT_ID":"2022-086L","TLE_LINE1":"1 53252U 22086L   23008.62260540  .00010026  00000-0  64700-3 0  9992","REV_AT_EPOCH":"2655","INCLINATION":"53.2182","EPOCH":"2023-01-08T14:56:33.106560","MEAN_MOTION":"15.08848100","SITE":"AFETR","ARG_OF_PERICENTER":"24.4243","OBJECT_TYPE":"PAYLOAD","MEAN_MOTION_DOT":"0.00010026","NORAD_CAT_ID":"53252","APOAPSIS":"541.886","REF_FRAME":"TEME","TIME_SYSTEM":"UTC","PERIAPSIS":"537.555","COUNTRY_CODE":"US"},{"PERIAPSIS":"537.612","TIME_SYSTEM":"UTC","REF_FRAME":"TEME","COUNTRY_CODE":"US","MEAN_MOTION":"15.08844098","MEAN_MOTION_DOT":"0.00004160","OBJECT_TYPE":"PAYLOAD","ARG_OF_PERICENTER":"33.5563","APOAPSIS":"541.854","NORAD_CAT_ID":"53253","SITE":"AFETR","ELEMENT_SET_NO":"999","OBJECT_ID":"2022-086M","TLE_LINE1":"1 53253U 22086M   23008.94180463  .00004160  00000-0  27933-3 0  9992","MEAN_ANOMALY":"326.5623","EPHEMERIS_TYPE":"0","EPOCH":"2023-01-08T22:36:11.920032","INCLINATION":"53.2172","REV_AT_EPOCH":"2658","MEAN_MOTION_DDOT":"0.0000000000000","CENTER_NAME":"EARTH","RA_OF_ASC_NODE":"342.4750","RCS_SIZE":"MEDIUM","CLASSIFICATION_TYPE":"U","MEAN_ELEMENT_THEORY":"SGP4","DECAY_DATE":null,"SEMIMAJOR_AXIS":"6917.868","TLE_LINE2":"2 53253  53.2172 342.4750 0003066  33.5563 326.5623 15.08844098 26580","LAUNCH_DATE":"2022-07-24","ECCENTRICITY":"0.00030660","PERIOD":"95.437","BSTAR":"0.00027933000000","GP_ID":"222501640","FILE":"3736460","OBJECT_NAME":"STARLINK-4133"}];
